{
  "norad_id": 66431,
  "name": "STARLINK-35439",
  "history": [
    {
      "epoch": "2026-03-28T15:36:20.986560",
      "apogee_km": 483.94019367426426,
      "perigee_km": 482.03938710825423,
      "latitude_deg": 36.67420157340278,
      "longitude_deg": 165.52331840014085,
      "semi_major_axis_km": 6861.126790391259,
      "eccentricity": 0.00013852,
      "inclination_deg": 42.998,
      "raan_deg": 167.0472,
      "arg_perigee_deg": 278.4813,
      "mean_anomaly_deg": 81.5881,
      "mean_motion_rev_day": 15.27599806
    }
  ]
}